{
  "type": "FeatureCollection",
  "features": [
    {
      "type": "Feature",
      "properties": {
        "norad_id": 34299,
        "name": "COSMOS 2251 DEB",
        "group": "cosmos-2251-debris",
        "lat": -73.46172550565858,
        "lon": -109.27351678014296,
        "alt_km": 345.1952692286022,
        "timestamp": "2025-12-16T08:59:43.555508+00:00",
        "meta_object_name": "COSMOS 2251 DEB",
        "meta_object_id": "1993-036MV",
        "meta_epoch": "2025-12-15T07:30:54.101952",
        "meta_mean_motion": 15.7845491,
        "meta_eccentricity": 0.00164887,
        "meta_inclination": 73.9736,
        "meta_ra_of_asc_node": 328.6474,
        "meta_arg_of_pericenter": 63.735,
        "meta_mean_anomaly": 296.557,
        "meta_ephemeris_type": 0,
        "meta_classification_type": "U",
        "meta_norad_cat_id": 34299,
        "meta_element_set_no": 999,
        "meta_rev_at_epoch": 89051,
        "meta_bstar": 0.0050737037,
        "meta_mean_motion_dot": 0.0098946,
        "meta_mean_motion_ddot": 0,
        "tle_line1": "1 34299U 93036MV  25349.31312618  .00989460  00000+0  50737-2 0  9995",
        "tle_line2": "2 34299  73.9736 328.6474 0016488  63.7350 296.5570 15.78454910890510"
      },
      "geometry": {
        "type": "Point",
        "coordinates": [
          -109.27351678014296,
          -73.46172550565858
        ]
      }
    },
    {
      "type": "Feature",
      "properties": {
        "norad_id": 34301,
        "name": "COSMOS 2251 DEB",
        "group": "cosmos-2251-debris",
        "lat": -20.91750250826778,
        "lon": -14.229264529574202,
        "alt_km": 612.1119677411925,
        "timestamp": "2025-12-16T08:59:43.555518+00:00",
        "meta_object_name": "COSMOS 2251 DEB",
        "meta_object_id": "1993-036MX",
        "meta_epoch": "2025-12-15T21:20:58.113600",
        "meta_mean_motion": 14.84707401,
        "meta_eccentricity": 0.00110113,
        "meta_inclination": 74.0041,
        "meta_ra_of_asc_node": 160.4404,
        "meta_arg_of_pericenter": 221.9001,
        "meta_mean_anomaly": 267.2778,
        "meta_ephemeris_type": 0,
        "meta_classification_type": "U",
        "meta_norad_cat_id": 34301,
        "meta_element_set_no": 999,
        "meta_rev_at_epoch": 88447,
        "meta_bstar": 0.0021633716,
        "meta_mean_motion_dot": 0.00018359,
        "meta_mean_motion_ddot": 0,
        "tle_line1": "1 34301U 93036MX  25349.88956150  .00018359  00000+0  21634-2 0  9990",
        "tle_line2": "2 34301  74.0041 160.4404 0011011 221.9001 267.2778 14.84707401884473"
      },
      "geometry": {
        "type": "Point",
        "coordinates": [
          -14.229264529574202,
          -20.91750250826778
        ]
      }
    },
    {
      "type": "Feature",
      "properties": {
        "norad_id": 34302,
        "name": "COSMOS 2251 DEB",
        "group": "cosmos-2251-debris",
        "lat": 55.3936338329967,
        "lon": 141.19373833325406,
        "alt_km": 752.3701974334354,
        "timestamp": "2025-12-16T08:59:43.555528+00:00",
        "meta_object_name": "COSMOS 2251 DEB",
        "meta_object_id": "1993-036MY",
        "meta_epoch": "2025-12-15T18:01:46.156224",
        "meta_mean_motion": 14.39343134,
        "meta_eccentricity": 0.00789503,
        "meta_inclination": 74.1781,
        "meta_ra_of_asc_node": 118.0694,
        "meta_arg_of_pericenter": 332.455,
        "meta_mean_anomaly": 95.6595,
        "meta_ephemeris_type": 0,
        "meta_classification_type": "U",
        "meta_norad_cat_id": 34302,
        "meta_element_set_no": 999,
        "meta_rev_at_epoch": 87764,
        "meta_bstar": 0.00047242898,
        "meta_mean_motion_dot": 1.497e-05,
        "meta_mean_motion_ddot": 0,
        "tle_line1": "1 34302U 93036MY  25349.75122866  .00001497  00000+0  47243-3 0  9996",
        "tle_line2": "2 34302  74.1781 118.0694 0078950 332.4550  95.6595 14.39343134877648"
      },
      "geometry": {
        "type": "Point",
        "coordinates": [
          141.19373833325406,
          55.3936338329967
        ]
      }
    },
    {
      "type": "Feature",
      "properties": {
        "norad_id": 34303,
        "name": "COSMOS 2251 DEB",
        "group": "cosmos-2251-debris",
        "lat": 70.50602610252868,
        "lon": -24.72959514194205,
        "alt_km": 613.6900511737149,
        "timestamp": "2025-12-16T08:59:43.555539+00:00",
        "meta_object_name": "COSMOS 2251 DEB",
        "meta_object_id": "1993-036MZ",
        "meta_epoch": "2025-12-15T21:22:26.823936",
        "meta_mean_motion": 14.54497099,
        "meta_eccentricity": 0.01351587,
        "meta_inclination": 74.0057,
        "meta_ra_of_asc_node": 282.0682,
        "meta_arg_of_pericenter": 59.6294,
        "meta_mean_anomaly": 4.1397,
        "meta_ephemeris_type": 0,
        "meta_classification_type": "U",
        "meta_norad_cat_id": 34303,
        "meta_element_set_no": 999,
        "meta_rev_at_epoch": 88008,
        "meta_bstar": 0.0010540416,
        "meta_mean_motion_dot": 5.047e-05,
        "meta_mean_motion_ddot": 0,
        "tle_line1": "1 34303U 93036MZ  25349.89058824  .00005047  00000+0  10540-2 0  9998",
        "tle_line2": "2 34303  74.0057 282.0682 0135158  59.6294   4.1397 14.54497099880084"
      },
      "geometry": {
        "type": "Point",
        "coordinates": [
          -24.72959514194205,
          70.50602610252868
        ]
      }
    },
    {
      "type": "Feature",
      "properties": {
        "norad_id": 34304,
        "name": "COSMOS 2251 DEB",
        "group": "cosmos-2251-debris",
        "lat": -24.92943214227048,
        "lon": 108.23206779535458,
        "alt_km": 755.3977266966467,
        "timestamp": "2025-12-16T08:59:43.555549+00:00",
        "meta_object_name": "COSMOS 2251 DEB",
        "meta_object_id": "1993-036NA",
        "meta_epoch": "2025-12-15T18:40:05.034720",
        "meta_mean_motion": 14.37890524,
        "meta_eccentricity": 0.01289568,
        "meta_inclination": 74.0128,
        "meta_ra_of_asc_node": 116.9906,
        "meta_arg_of_pericenter": 254.1634,
        "meta_mean_anomaly": 229.5407,
        "meta_ephemeris_type": 0,
        "meta_classification_type": "U",
        "meta_norad_cat_id": 34304,
        "meta_element_set_no": 999,
        "meta_rev_at_epoch": 87340,
        "meta_bstar": 0.0011049758,
        "meta_mean_motion_dot": 3.644e-05,
        "meta_mean_motion_ddot": 0,
        "tle_line1": "1 34304U 93036NA  25349.77783605  .00003644  00000+0  11050-2 0  9996",
        "tle_line2": "2 34304  74.0128 116.9906 0128956 254.1634 229.5407 14.37890524873400"
      },
      "geometry": {
        "type": "Point",
        "coordinates": [
          108.23206779535458,
          -24.92943214227048
        ]
      }
    },
    {
      "type": "Feature",
      "properties": {
        "norad_id": 34307,
        "name": "COSMOS 2251 DEB",
        "group": "cosmos-2251-debris",
        "lat": 12.01630769142603,
        "lon": 123.79382262615451,
        "alt_km": 801.9334969760594,
        "timestamp": "2025-12-16T08:59:43.555559+00:00",
        "meta_object_name": "COSMOS 2251 DEB",
        "meta_object_id": "1993-036ND",
        "meta_epoch": "2025-12-15T08:06:04.408128",
        "meta_mean_motion": 13.54324422,
        "meta_eccentricity": 0.03919844,
        "meta_inclination": 74.0535,
        "meta_ra_of_asc_node": 308.9466,
        "meta_arg_of_pericenter": 139.3163,
        "meta_mean_anomaly": 10.5448,
        "meta_ephemeris_type": 0,
        "meta_classification_type": "U",
        "meta_norad_cat_id": 34307,
        "meta_element_set_no": 999,
        "meta_rev_at_epoch": 82897,
        "meta_bstar": 0.0006636419,
        "meta_mean_motion_dot": 7.19e-06,
        "meta_mean_motion_ddot": 0,
        "tle_line1": "1 34307U 93036ND  25349.33755102  .00000719  00000+0  66364-3 0  9991",
        "tle_line2": "2 34307  74.0535 308.9466 0391984 139.3163  10.5448 13.54324422828975"
      },
      "geometry": {
        "type": "Point",
        "coordinates": [
          123.79382262615451,
          12.01630769142603
        ]
      }
    },
    {
      "type": "Feature",
      "properties": {
        "norad_id": 34313,
        "name": "COSMOS 2251 DEB",
        "group": "cosmos-2251-debris",
        "lat": -46.180000785541466,
        "lon": -79.58127762087386,
        "alt_km": 517.4723112837446,
        "timestamp": "2025-12-16T08:59:43.555569+00:00",
        "meta_object_name": "COSMOS 2251 DEB",
        "meta_object_id": "1993-036NK",
        "meta_epoch": "2025-12-15T22:08:58.322400",
        "meta_mean_motion": 15.19659265,
        "meta_eccentricity": 0.00115659,
        "meta_inclination": 73.9722,
        "meta_ra_of_asc_node": 298.8001,
        "meta_arg_of_pericenter": 75.6578,
        "meta_mean_anomaly": 284.5902,
        "meta_ephemeris_type": 0,
        "meta_classification_type": "U",
        "meta_norad_cat_id": 34313,
        "meta_element_set_no": 999,
        "meta_rev_at_epoch": 89113,
        "meta_bstar": 0.0032087363,
        "meta_mean_motion_dot": 0.00069195,
        "meta_mean_motion_ddot": 0,
        "tle_line1": "1 34313U 93036NK  25349.92289725  .00069195  00000+0  32087-2 0  9993",
        "tle_line2": "2 34313  73.9722 298.8001 0011565  75.6578 284.5902 15.19659265891131"
      },
      "geometry": {
        "type": "Point",
        "coordinates": [
          -79.58127762087386,
          -46.180000785541466
        ]
      }
    }
  ]
}